start=new Date('2022-12-15T00:00:00.000Z').valueOf();
sats=[{"PERIOD":"95.437","MEAN_MOTION_DDOT":"0.0000000000000","NORAD_CAT_ID":"53748","CENTER_NAME":"EARTH","RA_OF_ASC_NODE":"165.5895","SITE":"AFETR","OBJECT_TYPE":"PAYLOAD","REV_AT_EPOCH":"1631","MEAN_MOTION":"15.08841760","ARG_OF_PERICENTER":"47.0269","BSTAR":"0.00005504300000","MEAN_ANOMALY":"313.0926","OBJECT_NAME":"STARLINK-4669","LAUNCH_DATE":"2022-09-05","OBJECT_ID":"2022-107BA","GP_ID":"220412481","COUNTRY_CODE":"US","DECAY_DATE":null,"SEMIMAJOR_AXIS":"6917.875","INCLINATION":"53.2176","PERIAPSIS":"538.066","TLE_LINE1":"1 53748U 22107BA  22348.77887269  .00000588  00000-0  55043-4 0  9994","APOAPSIS":"541.414","MEAN_ELEMENT_THEORY":"SGP4","TLE_LINE2":"2 53748  53.2176 165.5895 0002420  47.0269 313.0926 15.08841760 16313","FILE":"3699647","ELEMENT_SET_NO":"999","ECCENTRICITY":"0.00024200","RCS_SIZE":"LARGE","MEAN_MOTION_DOT":"0.00000588","CLASSIFICATION_TYPE":"U","REF_FRAME":"TEME","TIME_SYSTEM":"UTC","EPOCH":"2022-12-14T18:41:34.600416","EPHEMERIS_TYPE":"0"},{"BSTAR":"0.00068677000000","MEAN_MOTION":"15.08790741","ARG_OF_PERICENTER":"65.3664","REV_AT_EPOCH":"1630","LAUNCH_DATE":"2022-09-05","OBJECT_ID":"2022-107BB","OBJECT_NAME":"STARLINK-4680","MEAN_ANOMALY":"294.7479","SEMIMAJOR_AXIS":"6918.031","DECAY_DATE":null,"COUNTRY_CODE":"US","GP_ID":"220411861","INCLINATION":"53.2172","PERIAPSIS":"538.891","NORAD_CAT_ID":"53749","MEAN_MOTION_DDOT":"0.0000000000000","PERIOD":"95.441","OBJECT_TYPE":"PAYLOAD","SITE":"AFETR","CENTER_NAME":"EARTH","RA_OF_ASC_NODE":"165.8708","MEAN_MOTION_DOT":"0.00010644","RCS_SIZE":"LARGE","ECCENTRICITY":"0.00014530","TIME_SYSTEM":"UTC","REF_FRAME":"TEME","CLASSIFICATION_TYPE":"U","EPHEMERIS_TYPE":"0","EPOCH":"2022-12-14T17:11:30.078240","APOAPSIS":"540.901","MEAN_ELEMENT_THEORY":"SGP4","TLE_LINE1":"1 53749U 22107BB  22348.71632035  .00010644  00000-0  68677-3 0  9998","TLE_LINE2":"2 53749  53.2172 165.8708 0001453  65.3664 294.7479 15.08790741 16302","FILE":"3699647","ELEMENT_SET_NO":"999"},{"MEAN_MOTION":"15.08836932","ARG_OF_PERICENTER":"62.0351","BSTAR":"0.00003558200000","REV_AT_EPOCH":"1632","LAUNCH_DATE":"2022-09-05","OBJECT_ID":"2022-107BC","MEAN_ANOMALY":"298.0814","OBJECT_NAME":"STARLINK-4612","COUNTRY_CODE":"US","DECAY_DATE":null,"SEMIMAJOR_AXIS":"6917.890","GP_ID":"220412684","PERIAPSIS":"538.574","INCLINATION":"53.2166","PERIOD":"95.438","MEAN_MOTION_DDOT":"0.0000000000000","NORAD_CAT_ID":"53750","OBJECT_TYPE":"PAYLOAD","CENTER_NAME":"EARTH","RA_OF_ASC_NODE":"165.6439","SITE":"AFETR","RCS_SIZE":"LARGE","MEAN_MOTION_DOT":"0.00000278","ECCENTRICITY":"0.00017070","TIME_SYSTEM":"UTC","CLASSIFICATION_TYPE":"U","REF_FRAME":"TEME","EPOCH":"2022-12-14T18:52:12.257472","EPHEMERIS_TYPE":"0","APOAPSIS":"540.936","MEAN_ELEMENT_THEORY":"SGP4","TLE_LINE1":"1 53750U 22107BC  22348.78625298  .00000278  00000-0  35582-4 0  9992","TLE_LINE2":"2 53750  53.2166 165.6439 0001707  62.0351 298.0814 15.08836932 16320","FILE":"3699647","ELEMENT_SET_NO":"999"},{"FILE":"3699728","TLE_LINE2":"2 53773  53.2172 185.2199 0001149  70.8138 289.2978 15.08846217 14477","APOAPSIS":"540.521","MEAN_ELEMENT_THEORY":"SGP4","TLE_LINE1":"1 53773U 22111A   22348.80645277  .00000375  00000-0  41625-4 0  9997","ELEMENT_SET_NO":"999","TIME_SYSTEM":"UTC","CLASSIFICATION_TYPE":"U","REF_FRAME":"TEME","RCS_SIZE":"LARGE","MEAN_MOTION_DOT":"0.00000375","ECCENTRICITY":"0.00011490","EPOCH":"2022-12-14T19:21:17.519328","EPHEMERIS_TYPE":"0","PERIOD":"95.437","MEAN_MOTION_DDOT":"0.0000000000000","NORAD_CAT_ID":"53773","OBJECT_TYPE":"PAYLOAD","CENTER_NAME":"EARTH","RA_OF_ASC_NODE":"185.2199","SITE":"AFETR","OBJECT_ID":"2022-111A","LAUNCH_DATE":"2022-09-11","MEAN_ANOMALY":"289.2978","OBJECT_NAME":"STARLINK-4718","ARG_OF_PERICENTER":"70.8138","MEAN_MOTION":"15.08846217","BSTAR":"0.00004162500000","REV_AT_EPOCH":"1447","INCLINATION":"53.2172","PERIAPSIS":"538.932","COUNTRY_CODE":"US","DECAY_DATE":null,"SEMIMAJOR_AXIS":"6917.861","GP_ID":"220414862"},{"EPHEMERIS_TYPE":"0","EPOCH":"2022-12-14T22:26:46.298976","MEAN_MOTION_DOT":"-0.00000278","RCS_SIZE":"LARGE","ECCENTRICITY":"0.00017200","TIME_SYSTEM":"UTC","REF_FRAME":"TEME","CLASSIFICATION_TYPE":"U","ELEMENT_SET_NO":"999","APOAPSIS":"540.958","MEAN_ELEMENT_THEORY":"SGP4","TLE_LINE1":"1 53774U 22111B   22348.93525809 -.00000278  00000-0  61764-6 0  9991","FILE":"3699728","TLE_LINE2":"2 53774  53.2160 184.6013 0001720  73.9377 286.1805 15.08832604 14499","SEMIMAJOR_AXIS":"6917.903","DECAY_DATE":null,"COUNTRY_CODE":"US","GP_ID":"220414938","PERIAPSIS":"538.578","INCLINATION":"53.2160","BSTAR":"0.00000061764000","MEAN_MOTION":"15.08832604","ARG_OF_PERICENTER":"73.9377","REV_AT_EPOCH":"1449","OBJECT_ID":"2022-111B","LAUNCH_DATE":"2022-09-11","OBJECT_NAME":"STARLINK-4719","MEAN_ANOMALY":"286.1805","OBJECT_TYPE":"PAYLOAD","SITE":"AFETR","RA_OF_ASC_NODE":"184.6013","CENTER_NAME":"EARTH","NORAD_CAT_ID":"53774","PERIOD":"95.438","MEAN_MOTION_DDOT":"0.0000000000000"},{"REV_AT_EPOCH":"1460","ARG_OF_PERICENTER":"68.0992","MEAN_MOTION":"15.08838728","BSTAR":"0.00003280700000","OBJECT_NAME":"STARLINK-4722","MEAN_ANOMALY":"292.0127","OBJECT_ID":"2022-111C","LAUNCH_DATE":"2022-09-11","GP_ID":"220414950","COUNTRY_CODE":"US","DECAY_DATE":null,"SEMIMAJOR_AXIS":"6917.884","INCLINATION":"53.2158","PERIAPSIS":"538.921","PERIOD":"95.438","MEAN_MOTION_DDOT":"0.0000000000000","NORAD_CAT_ID":"53775","RA_OF_ASC_NODE":"175.7172","CENTER_NAME":"EARTH","SITE":"AFETR","OBJECT_TYPE":"PAYLOAD","ECCENTRICITY":"0.00011980","RCS_SIZE":"LARGE","MEAN_MOTION_DOT":"0.00000234","CLASSIFICATION_TYPE":"U","REF_FRAME":"TEME","TIME_SYSTEM":"UTC","EPOCH":"2022-12-14T18:24:22.883328","EPHEMERIS_TYPE":"0","TLE_LINE1":"1 53775U 22111C   22348.76693152  .00000234  00000-0  32807-4 0  9995","APOAPSIS":"540.578","MEAN_ELEMENT_THEORY":"SGP4","TLE_LINE2":"2 53775  53.2158 175.7172 0001198  68.0992 292.0127 15.08838728 14600","FILE":"3699728","ELEMENT_SET_NO":"999"},{"OBJECT_TYPE":"PAYLOAD","SITE":"AFETR","CENTER_NAME":"EARTH","RA_OF_ASC_NODE":"180.3478","NORAD_CAT_ID":"53776","PERIOD":"95.438","MEAN_MOTION_DDOT":"0.0000000000000","SEMIMAJOR_AXIS":"6917.907","COUNTRY_CODE":"US","DECAY_DATE":null,"GP_ID":"220414861","PERIAPSIS":"538.296","INCLINATION":"53.2200","BSTAR":"0.00006852500000","ARG_OF_PERICENTER":"62.1376","MEAN_MOTION":"15.08831141","REV_AT_EPOCH":"1454","OBJECT_ID":"2022-111D","LAUNCH_DATE":"2022-09-11","OBJECT_NAME":"STARLINK-4708","MEAN_ANOMALY":"297.9833","ELEMENT_SET_NO":"999","APOAPSIS":"541.249","MEAN_ELEMENT_THEORY":"SGP4","TLE_LINE1":"1 53776U 22111D   22348.82445878  .00000802  00000-0  68525-4 0  9990","TLE_LINE2":"2 53776  53.2200 180.3478 0002134  62.1376 297.9833 15.08831141 14545","FILE":"3699728","EPHEMERIS_TYPE":"0","EPOCH":"2022-12-14T19:47:13.238592","MEAN_MOTION_DOT":"0.00000802","RCS_SIZE":"LARGE","ECCENTRICITY":"0.00021340","TIME_SYSTEM":"UTC","REF_FRAME":"TEME","CLASSIFICATION_TYPE":"U"},{"MEAN_ELEMENT_THEORY":"SGP4","APOAPSIS":"541.173","TLE_LINE1":"1 53777U 22111E   22348.89203571  .00000411  00000-0  43929-4 0  9997","TLE_LINE2":"2 53777  53.2151 175.0749 0002107  43.5480 316.5678 15.08849747 14627","FILE":"3699728","ELEMENT_SET_NO":"999","MEAN_MOTION_DOT":"0.00000411","RCS_SIZE":"LARGE","ECCENTRICITY":"0.00021070","TIME_SYSTEM":"UTC","REF_FRAME":"TEME","CLASSIFICATION_TYPE":"U","EPHEMERIS_TYPE":"0","EPOCH":"2022-12-14T21:24:31.885344","NORAD_CAT_ID":"53777","MEAN_MOTION_DDOT":"0.0000000000000","PERIOD":"95.437","OBJECT_TYPE":"PAYLOAD","SITE":"AFETR","RA_OF_ASC_NODE":"175.0749","CENTER_NAME":"EARTH","BSTAR":"0.00004392900000","ARG_OF_PERICENTER":"43.5480","MEAN_MOTION":"15.08849747","REV_AT_EPOCH":"1462","OBJECT_ID":"2022-111E","LAUNCH_DATE":"2022-09-11","OBJECT_NAME":"STARLINK-4664","MEAN_ANOMALY":"316.5678","SEMIMAJOR_AXIS":"6917.851","COUNTRY_CODE":"US","DECAY_DATE":null,"GP_ID":"220414858","PERIAPSIS":"538.258","INCLINATION":"53.2151"},{"NORAD_CAT_ID":"53778","PERIOD":"95.438","MEAN_MOTION_DDOT":"0.0000000000000","SITE":"AFETR","RA_OF_ASC_NODE":"179.5514","CENTER_NAME":"EARTH","OBJECT_TYPE":"PAYLOAD","OBJECT_NAME":"STARLINK-4709","MEAN_ANOMALY":"313.8322","OBJECT_ID":"2022-111F","LAUNCH_DATE":"2022-09-11","REV_AT_EPOCH":"1456","BSTAR":"0.00007533300000","MEAN_MOTION":"15.08835516","ARG_OF_PERICENTER":"46.2843","INCLINATION":"53.2161","PERIAPSIS":"538.309","GP_ID":"220414956","SEMIMAJOR_AXIS":"6917.894","COUNTRY_CODE":"US","DECAY_DATE":null,"FILE":"3699733","TLE_LINE2":"2 53778  53.2161 179.5514 0002096  46.2843 313.8322 15.08835516 14566","TLE_LINE1":"1 53778U 22111F   22348.92377184  .00000911  00000-0  75333-4 0  9993","APOAPSIS":"541.209","MEAN_ELEMENT_THEORY":"SGP4","ELEMENT_SET_NO":"999","REF_FRAME":"TEME","CLASSIFICATION_TYPE":"U","TIME_SYSTEM":"UTC","ECCENTRICITY":"0.00020960","MEAN_MOTION_DOT":"0.00000911","RCS_SIZE":"LARGE","EPHEMERIS_TYPE":"0","EPOCH":"2022-12-14T22:10:13.886976"},{"ELEMENT_SET_NO":"999","TLE_LINE2":"2 53779  53.2163 175.3534 0001949  45.9634 314.1518 15.08842398 14618","FILE":"3699733","TLE_LINE1":"1 53779U 22111G   22348.82211761  .00000430  00000-0  45097-4 0  9991","MEAN_ELEMENT_THEORY":"SGP4","APOAPSIS":"541.086","EPHEMERIS_TYPE":"0","EPOCH":"2022-12-14T19:43:50.961504","REF_FRAME":"TEME","CLASSIFICATION_TYPE":"U","TIME_SYSTEM":"UTC","ECCENTRICITY":"0.00019490","MEAN_MOTION_DOT":"0.00000430","RCS_SIZE":"LARGE","SITE":"AFETR","CENTER_NAME":"EARTH","RA_OF_ASC_NODE":"175.3534","OBJECT_TYPE":"PAYLOAD","NORAD_CAT_ID":"53779","MEAN_MOTION_DDOT":"0.0000000000000","PERIOD":"95.437","INCLINATION":"53.2163","PERIAPSIS":"538.390","GP_ID":"220414874","SEMIMAJOR_AXIS":"6917.873","COUNTRY_CODE":"US","DECAY_DATE":null,"OBJECT_NAME":"STARLINK-4706","MEAN_ANOMALY":"314.1518","LAUNCH_DATE":"2022-09-11","OBJECT_ID":"2022-111G","REV_AT_EPOCH":"1461","BSTAR":"0.00004509700000","MEAN_MOTION":"15.08842398","ARG_OF_PERICENTER":"45.9634"}];
